{
  "type": "FeatureCollection",
  "features": [
    {
      "type": "Feature",
      "properties": {
        "norad_id": 31302,
        "name": "FENGYUN 1C DEB",
        "group": "fengyun-1c-debris",
        "lat": -44.080476083469556,
        "lon": 39.895577962847305,
        "alt_km": 808.215790659141,
        "timestamp": "2025-12-14T11:29:50.342077+00:00",
        "meta_object_name": "FENGYUN 1C DEB",
        "meta_object_id": "1999-025BPL",
        "meta_epoch": "2025-12-05T14:46:32.923776",
        "meta_mean_motion": 14.27462928,
        "meta_eccentricity": 0.00274625,
        "meta_inclination": 99.4134,
        "meta_ra_of_asc_node": 21.1132,
        "meta_arg_of_pericenter": 75.788,
        "meta_mean_anomaly": 75.4083,
        "meta_ephemeris_type": 0,
        "meta_classification_type": "U",
        "meta_norad_cat_id": 31302,
        "meta_element_set_no": 999,
        "meta_rev_at_epoch": 96256,
        "meta_bstar": 0.0026425456,
        "meta_mean_motion_dot": 6.469e-05,
        "meta_mean_motion_ddot": 0,
        "tle_line1": "1 31302U 99025BPL 25339.61565884  .00006469  00000+0  26425-2 0  9994",
        "tle_line2": "2 31302  99.4134  21.1132 0027462  75.7880  75.4083 14.27462928962567"
      },
      "geometry": {
        "type": "Point",
        "coordinates": [
          39.895577962847305,
          -44.080476083469556
        ]
      }
    },
    {
      "type": "Feature",
      "properties": {
        "norad_id": 31303,
        "name": "FENGYUN 1C DEB",
        "group": "fengyun-1c-debris",
        "lat": -57.9695608605623,
        "lon": 18.80314071822276,
        "alt_km": 870.4594273925286,
        "timestamp": "2025-12-14T11:29:50.342088+00:00",
        "meta_object_name": "FENGYUN 1C DEB",
        "meta_object_id": "1999-025BPM",
        "meta_epoch": "2025-12-13T00:02:19.104000",
        "meta_mean_motion": 14.1102512,
        "meta_eccentricity": 0.00116096,
        "meta_inclination": 98.7048,
        "meta_ra_of_asc_node": 3.1962,
        "meta_arg_of_pericenter": 151.4225,
        "meta_mean_anomaly": 208.7585,
        "meta_ephemeris_type": 0,
        "meta_classification_type": "U",
        "meta_norad_cat_id": 31303,
        "meta_element_set_no": 999,
        "meta_rev_at_epoch": 96322,
        "meta_bstar": 0.00015438338,
        "meta_mean_motion_dot": 2.35e-06,
        "meta_mean_motion_ddot": 0,
        "tle_line1": "1 31303U 99025BPM 25347.00161000  .00000235  00000+0  15438-3 0  9997",
        "tle_line2": "2 31303  98.7048   3.1962 0011609 151.4225 208.7585 14.11025120963220"
      },
      "geometry": {
        "type": "Point",
        "coordinates": [
          18.80314071822276,
          -57.9695608605623
        ]
      }
    },
    {
      "type": "Feature",
      "properties": {
        "norad_id": 31311,
        "name": "FENGYUN 1C DEB",
        "group": "fengyun-1c-debris",
        "lat": 61.40294954959737,
        "lon": -93.53544707534934,
        "alt_km": 775.6552065208307,
        "timestamp": "2025-12-14T11:29:50.342098+00:00",
        "meta_object_name": "FENGYUN 1C DEB",
        "meta_object_id": "1999-025BPP",
        "meta_epoch": "2025-12-13T17:03:36.902592",
        "meta_mean_motion": 14.29759308,
        "meta_eccentricity": 0.00185608,
        "meta_inclination": 98.8523,
        "meta_ra_of_asc_node": 69.073,
        "meta_arg_of_pericenter": 83.9747,
        "meta_mean_anomaly": 41.2961,
        "meta_ephemeris_type": 0,
        "meta_classification_type": "U",
        "meta_norad_cat_id": 31311,
        "meta_element_set_no": 999,
        "meta_rev_at_epoch": 96235,
        "meta_bstar": 0.0021483581,
        "meta_mean_motion_dot": 5.484e-05,
        "meta_mean_motion_ddot": 0,
        "tle_line1": "1 31311U 99025BPP 25347.71084378  .00005484  00000+0  21484-2 0  9994",
        "tle_line2": "2 31311  98.8523  69.0730 0018560  83.9747  41.2961 14.29759308962355"
      },
      "geometry": {
        "type": "Point",
        "coordinates": [
          -93.53544707534934,
          61.40294954959737
        ]
      }
    },
    {
      "type": "Feature",
      "properties": {
        "norad_id": 31312,
        "name": "FENGYUN 1C DEB",
        "group": "fengyun-1c-debris",
        "lat": 76.57316286896733,
        "lon": -165.1098978050904,
        "alt_km": 911.0176044317432,
        "timestamp": "2025-12-14T11:29:50.342113+00:00",
        "meta_object_name": "FENGYUN 1C DEB",
        "meta_object_id": "1999-025BPQ",
        "meta_epoch": "2025-12-13T11:38:40.786656",
        "meta_mean_motion": 14.00922975,
        "meta_eccentricity": 0.00580411,
        "meta_inclination": 98.8596,
        "meta_ra_of_asc_node": 333.1323,
        "meta_arg_of_pericenter": 234.1112,
        "meta_mean_anomaly": 256.8946,
        "meta_ephemeris_type": 0,
        "meta_classification_type": "U",
        "meta_norad_cat_id": 31312,
        "meta_element_set_no": 999,
        "meta_rev_at_epoch": 95156,
        "meta_bstar": 0.00074973161,
        "meta_mean_motion_dot": 1.095e-05,
        "meta_mean_motion_ddot": 0,
        "tle_line1": "1 31312U 99025BPQ 25347.48519429  .00001095  00000+0  74973-3 0  9995",
        "tle_line2": "2 31312  98.8596 333.1323 0058041 234.1112 256.8946 14.00922975951562"
      },
      "geometry": {
        "type": "Point",
        "coordinates": [
          -165.1098978050904,
          76.57316286896733
        ]
      }
    },
    {
      "type": "Feature",
      "properties": {
        "norad_id": 31313,
        "name": "FENGYUN 1C DEB",
        "group": "fengyun-1c-debris",
        "lat": -76.73786195846758,
        "lon": -65.25494056863369,
        "alt_km": 832.3962798532903,
        "timestamp": "2025-12-14T11:29:50.342123+00:00",
        "meta_object_name": "FENGYUN 1C DEB",
        "meta_object_id": "1999-025BPR",
        "meta_epoch": "2025-12-13T00:25:13.451520",
        "meta_mean_motion": 14.22274667,
        "meta_eccentricity": 0.00446352,
        "meta_inclination": 99.0151,
        "meta_ra_of_asc_node": 250.9078,
        "meta_arg_of_pericenter": 180.3332,
        "meta_mean_anomaly": 179.7822,
        "meta_ephemeris_type": 0,
        "meta_classification_type": "U",
        "meta_norad_cat_id": 31313,
        "meta_element_set_no": 999,
        "meta_rev_at_epoch": 97066,
        "meta_bstar": 0.00043497001,
        "meta_mean_motion_dot": 9.3e-06,
        "meta_mean_motion_ddot": 0,
        "tle_line1": "1 31313U 99025BPR 25347.01751680  .00000930  00000+0  43497-3 0  9996",
        "tle_line2": "2 31313  99.0151 250.9078 0044635 180.3332 179.7822 14.22274667970666"
      },
      "geometry": {
        "type": "Point",
        "coordinates": [
          -65.25494056863369,
          -76.73786195846758
        ]
      }
    },
    {
      "type": "Feature",
      "properties": {
        "norad_id": 31314,
        "name": "FENGYUN 1C DEB",
        "group": "fengyun-1c-debris",
        "lat": -38.932845447163245,
        "lon": 155.23522490576707,
        "alt_km": 922.0934964789558,
        "timestamp": "2025-12-14T11:29:50.342133+00:00",
        "meta_object_name": "FENGYUN 1C DEB",
        "meta_object_id": "1999-025BPS",
        "meta_epoch": "2025-12-13T05:23:45.501216",
        "meta_mean_motion": 14.04922929,
        "meta_eccentricity": 0.00788522,
        "meta_inclination": 98.8216,
        "meta_ra_of_asc_node": 341.2227,
        "meta_arg_of_pericenter": 356.0762,
        "meta_mean_anomaly": 3.9779,
        "meta_ephemeris_type": 0,
        "meta_classification_type": "U",
        "meta_norad_cat_id": 31314,
        "meta_element_set_no": 999,
        "meta_rev_at_epoch": 60821,
        "meta_bstar": 0.00042724361,
        "meta_mean_motion_dot": 6.63e-06,
        "meta_mean_motion_ddot": 0,
        "tle_line1": "1 31314U 99025BPS 25347.22483219  .00000663  00000+0  42724-3 0  9995",
        "tle_line2": "2 31314  98.8216 341.2227 0078852 356.0762   3.9779 14.04922929608212"
      },
      "geometry": {
        "type": "Point",
        "coordinates": [
          155.23522490576707,
          -38.932845447163245
        ]
      }
    },
    {
      "type": "Feature",
      "properties": {
        "norad_id": 31319,
        "name": "FENGYUN 1C DEB",
        "group": "fengyun-1c-debris",
        "lat": -77.79923925279195,
        "lon": 21.196091481845077,
        "alt_km": 1111.582513161541,
        "timestamp": "2025-12-14T11:29:50.342144+00:00",
        "meta_object_name": "FENGYUN 1C DEB",
        "meta_object_id": "1999-025BPX",
        "meta_epoch": "2025-12-13T12:23:56.642784",
        "meta_mean_motion": 13.75828624,
        "meta_eccentricity": 0.01706449,
        "meta_inclination": 98.8309,
        "meta_ra_of_asc_node": 246.2726,
        "meta_arg_of_pericenter": 84.8724,
        "meta_mean_anomaly": 92.3174,
        "meta_ephemeris_type": 0,
        "meta_classification_type": "U",
        "meta_norad_cat_id": 31319,
        "meta_element_set_no": 999,
        "meta_rev_at_epoch": 93698,
        "meta_bstar": 0.00022698552,
        "meta_mean_motion_dot": 2.06e-06,
        "meta_mean_motion_ddot": 0,
        "tle_line1": "1 31319U 99025BPX 25347.51662781  .00000206  00000+0  22699-3 0  9997",
        "tle_line2": "2 31319  98.8309 246.2726 0170644  84.8724  92.3174 13.75828624936987"
      },
      "geometry": {
        "type": "Point",
        "coordinates": [
          21.196091481845077,
          -77.79923925279195
        ]
      }
    }
  ]
}